KINEIS-2D               
1 62930U 25028C   26195.10615562  .00000847  00000+0  13105-3 0  9997
2 62930  97.9273 247.0328 0004711 112.2051 247.9659 14.75767166 76689
KINEIS-2E               
1 62931U 25028D   26195.11921935  .00000715  00000+0  10830-3 0  9999
2 62931  97.8942 246.1783 0002124  95.7441 264.4012 14.77085861 76753
KINEIS-2A               
1 62932U 25028E   26195.12329149  .00000675  00000+0  11188-3 0  9992
2 62932  98.1288 250.5509 0006031  86.3005 273.8892 14.73449105 76570
KINEIS-2B               
1 62934U 25028G   26195.16857351  .00000666  00000+0  11017-3 0  9990
2 62934  97.9655 247.5399 0004881  76.2691 283.9060 14.73449879 76634
KINEIS-4E               
1 63300U 25056A   26195.16216726  .00000761  00000+0  12805-3 0  9996
2 63300  97.9067 318.3129 0003000  87.6993 272.4558 14.72301311 71097
KINEIS-4C               
1 63301U 25056B   26195.17456252  .00000792  00000+0  13297-3 0  9998
2 63301  97.9121 318.5732 0002703 216.0100 144.0926 14.72323054 71101
KINEIS-4D               
1 63302U 25056C   26195.17776034  .00000808  00000+0  13507-3 0  9994
2 63302  97.9042 318.5504 0001428 220.9956 139.1145 14.72425547 71105
KINEIS-4A               
1 63303U 25056D   26195.21305416  .00000766  00000+0  12871-3 0  9998
2 63303  97.9136 318.5351 0002003 154.5619 205.5687 14.72332586 71107
KINEIS-4B               
1 63304U 25056E   26195.19577502  .00000776  00000+0  13035-3 0  9997
2 63304  97.9148 318.5755 0005209 196.1274 163.9769 14.72327072 71099
