{"fetched_at":"2026-07-14T17:40:53.405Z","source":"https://celestrak.org/NORAD/elements/gp.php?NAME=KINEIS&FORMAT=JSON","constellation":"kineis","records":[{"OBJECT_NAME":"KINEIS-2D","OBJECT_ID":"2025-028C","EPOCH":"2026-07-14T02:32:51.845568","CLASSIFICATION_TYPE":"U","MEAN_MOTION":14.75767166,"ECCENTRICITY":0.0004711,"INCLINATION":97.9273,"RA_OF_ASC_NODE":247.0328,"ARG_OF_PERICENTER":112.2051,"MEAN_ANOMALY":247.9659,"EPHEMERIS_TYPE":0,"NORAD_CAT_ID":62930,"ELEMENT_SET_NO":999,"REV_AT_EPOCH":7668,"BSTAR":0.00013105,"MEAN_MOTION_DOT":0.00000847,"MEAN_MOTION_DDOT":0},{"OBJECT_NAME":"KINEIS-2E","OBJECT_ID":"2025-028D","EPOCH":"2026-07-14T02:51:40.551840","CLASSIFICATION_TYPE":"U","MEAN_MOTION":14.77085861,"ECCENTRICITY":0.0002124,"INCLINATION":97.8942,"RA_OF_ASC_NODE":246.1783,"ARG_OF_PERICENTER":95.7441,"MEAN_ANOMALY":264.4012,"EPHEMERIS_TYPE":0,"NORAD_CAT_ID":62931,"ELEMENT_SET_NO":999,"REV_AT_EPOCH":7675,"BSTAR":0.0001083,"MEAN_MOTION_DOT":0.00000715,"MEAN_MOTION_DDOT":0},{"OBJECT_NAME":"KINEIS-2A","OBJECT_ID":"2025-028E","EPOCH":"2026-07-14T02:57:32.384736","CLASSIFICATION_TYPE":"U","MEAN_MOTION":14.73449105,"ECCENTRICITY":0.0006031,"INCLINATION":98.1288,"RA_OF_ASC_NODE":250.5509,"ARG_OF_PERICENTER":86.3005,"MEAN_ANOMALY":273.8892,"EPHEMERIS_TYPE":0,"NORAD_CAT_ID":62932,"ELEMENT_SET_NO":999,"REV_AT_EPOCH":7657,"BSTAR":0.00011188,"MEAN_MOTION_DOT":0.00000675,"MEAN_MOTION_DDOT":0},{"OBJECT_NAME":"KINEIS-2B","OBJECT_ID":"2025-028G","EPOCH":"2026-07-14T04:02:44.751264","CLASSIFICATION_TYPE":"U","MEAN_MOTION":14.73449879,"ECCENTRICITY":0.0004881,"INCLINATION":97.9655,"RA_OF_ASC_NODE":247.5399,"ARG_OF_PERICENTER":76.2691,"MEAN_ANOMALY":283.906,"EPHEMERIS_TYPE":0,"NORAD_CAT_ID":62934,"ELEMENT_SET_NO":999,"REV_AT_EPOCH":7663,"BSTAR":0.00011017,"MEAN_MOTION_DOT":0.00000666,"MEAN_MOTION_DDOT":0},{"OBJECT_NAME":"KINEIS-4E","OBJECT_ID":"2025-056A","EPOCH":"2026-07-14T03:53:31.251264","CLASSIFICATION_TYPE":"U","MEAN_MOTION":14.72301311,"ECCENTRICITY":0.0003,"INCLINATION":97.9067,"RA_OF_ASC_NODE":318.3129,"ARG_OF_PERICENTER":87.6993,"MEAN_ANOMALY":272.4558,"EPHEMERIS_TYPE":0,"NORAD_CAT_ID":63300,"ELEMENT_SET_NO":999,"REV_AT_EPOCH":7109,"BSTAR":0.00012805,"MEAN_MOTION_DOT":0.00000761,"MEAN_MOTION_DDOT":0},{"OBJECT_NAME":"KINEIS-4C","OBJECT_ID":"2025-056B","EPOCH":"2026-07-14T04:11:22.201728","CLASSIFICATION_TYPE":"U","MEAN_MOTION":14.72323054,"ECCENTRICITY":0.0002703,"INCLINATION":97.9121,"RA_OF_ASC_NODE":318.5732,"ARG_OF_PERICENTER":216.01,"MEAN_ANOMALY":144.0926,"EPHEMERIS_TYPE":0,"NORAD_CAT_ID":63301,"ELEMENT_SET_NO":999,"REV_AT_EPOCH":7110,"BSTAR":0.00013297,"MEAN_MOTION_DOT":0.00000792,"MEAN_MOTION_DDOT":0},{"OBJECT_NAME":"KINEIS-4D","OBJECT_ID":"2025-056C","EPOCH":"2026-07-14T04:15:58.493376","CLASSIFICATION_TYPE":"U","MEAN_MOTION":14.72425547,"ECCENTRICITY":0.0001428,"INCLINATION":97.9042,"RA_OF_ASC_NODE":318.5504,"ARG_OF_PERICENTER":220.9956,"MEAN_ANOMALY":139.1145,"EPHEMERIS_TYPE":0,"NORAD_CAT_ID":63302,"ELEMENT_SET_NO":999,"REV_AT_EPOCH":7110,"BSTAR":0.00013507,"MEAN_MOTION_DOT":0.00000808,"MEAN_MOTION_DDOT":0},{"OBJECT_NAME":"KINEIS-4A","OBJECT_ID":"2025-056D","EPOCH":"2026-07-14T05:06:47.879424","CLASSIFICATION_TYPE":"U","MEAN_MOTION":14.72332586,"ECCENTRICITY":0.0002003,"INCLINATION":97.9136,"RA_OF_ASC_NODE":318.5351,"ARG_OF_PERICENTER":154.5619,"MEAN_ANOMALY":205.5687,"EPHEMERIS_TYPE":0,"NORAD_CAT_ID":63303,"ELEMENT_SET_NO":999,"REV_AT_EPOCH":7110,"BSTAR":0.00012871,"MEAN_MOTION_DOT":0.00000766,"MEAN_MOTION_DDOT":0},{"OBJECT_NAME":"KINEIS-4B","OBJECT_ID":"2025-056E","EPOCH":"2026-07-14T04:41:54.961728","CLASSIFICATION_TYPE":"U","MEAN_MOTION":14.72327072,"ECCENTRICITY":0.0005209,"INCLINATION":97.9148,"RA_OF_ASC_NODE":318.5755,"ARG_OF_PERICENTER":196.1274,"MEAN_ANOMALY":163.9769,"EPHEMERIS_TYPE":0,"NORAD_CAT_ID":63304,"ELEMENT_SET_NO":999,"REV_AT_EPOCH":7109,"BSTAR":0.00013035,"MEAN_MOTION_DOT":0.00000776,"MEAN_MOTION_DDOT":0}]}
